#aV2006  3 11  0  0   .00000000      96 DD+AD WGS84 FIT  NGA
## 1365 518400.00000000   900.00000000 53805  .0000000000000
+   29     1  2  3  4  5  6  7  8  9 10 11 13 14 15 16 17 18
+         19 20 21 22 23 24 25 26 27 28 29 30  0  0  0  0  0
+          0  0  0  0  0  0  0  0  0  0  0  0  0  0  0  0  0
+          0  0  0  0  0  0  0  0  0  0  0  0  0  0  0  0  0
+          0  0  0  0  0  0  0  0  0  0  0  0  0  0  0  0  0
++         0  0  0  0  0  0  0  0  0  0  0  0  0  0  0  0  0
++         0  0  0  0  0  0  0  0  0  0  0  0  0  0  0  0  0
++         0  0  0  0  0  0  0  0  0  0  0  0  0  0  0  0  0
++         0  0  0  0  0  0  0  0  0  0  0  0  0  0  0  0  0
++         0  0  0  0  0  0  0  0  0  0  0  0  0  0  0  0  0
%c cc cc ccc ccc cccc cccc cccc cccc ccccc ccccc ccccc ccccc
%c cc cc ccc ccc cccc cccc cccc cccc ccccc ccccc ccccc ccccc
%f  0.0000000  0.000000000  0.00000000000  0.000000000000000
%f  0.0000000  0.000000000  0.00000000000  0.000000000000000
%i    0    0    0    0      0      0      0      0         0
%i    0    0    0    0      0      0      0      0         0
/*      NGA, ST. LOUIS,MO.                                  
/*   EPHEMERIS COMPUTED FROM  3 DAYS OF DATA                
/* CCCCCCCCCCCCCCCCCCCCCCCCCCCCCCCCCCCCCCCCCCCCCCCCCCCCCCCCC
/* CCCCCCCCCCCCCCCCCCCCCCCCCCCCCCCCCCCCCCCCCCCCCCCCCCCCCCCCC
*  2006  3 11  3 30   .00000000                                                 
P  1    939.529797 -15124.969012  22006.679426     40.850643                    
V  1  26780.249204  -5789.773387  -5208.622379       .019795                    
P  2   9588.368032  21632.420092  11971.656364    -15.075104                    
V  2 -12837.287861  -9193.468293  26115.836261       .018138                    
P  3  -6117.201975 -14826.590446 -21335.914850     80.904442                    
V  3  25228.147212  -9201.776520   -542.242079       .029983                    
P  4   -838.476162  18530.587780  18840.627248    173.309354                    
V  4 -18010.223682 -16191.288108  15441.377970       .110396                    
P  5  14560.560879   6386.098667  21097.267426   -380.762662                    
V  5  -5332.540080  26788.624474  -4222.042916       .803007                    
P  6  25850.389912  -5792.375046   2626.853453    392.403573                    
V  6  -1949.864513   4305.459659  30863.220237       .298094                    
P  7  25495.665467  -2281.570212   7946.118452    511.113420                    
V  7  -8083.860365   5949.992206  28864.271156       .067678                    
P  8  -9474.108159  11817.867073 -21937.656333    -59.072282                    
V  8 -18932.364853 -19955.361135  -2981.243759      -.010429                    
P  9  21396.102169  14978.831208   5070.852531     11.279956                    
V  9   3396.749443   6732.996907 -30661.984676       .016724                    
P 10   3485.279430  22157.077223 -14060.628877     79.956568                    
V 10  -6899.539212  16532.719443  24803.879441       .006332                    
P 11 -23241.360696 -11820.972197   5624.409399    312.611681                    
V 11  -3161.925631  -7871.300227 -29020.698809       .027271                    
P 13 -25803.688398   6137.893087    228.477020     46.640857                    
V 13    -77.237509  -1936.855705  32455.886644       .026111                    
P 14  15866.850165 -14675.638965  15475.661655    -18.061869                    
V 14  19244.017366  -3441.731330 -23138.638771       .006923                    
P 15  10467.796757 -11333.385313 -21770.064457    578.425366                    
V 15  18061.097908  20444.367897  -2352.181727       .060193                    
P 16   1336.496829 -25268.560857  -7827.684225     30.494116                    
V 16   5267.927378  -8999.219232  29720.729132       .020012                    
P 17 -17044.109919  14716.112900  13996.533330     65.800225                    
V 17 -17810.156360   2472.387676 -24337.352270       .065802                    
P 18  16309.444349 -11702.535456 -17146.225165   -225.082247                    
V 18  -4779.016779  21643.039678 -19498.915541      -.019801                    
P 19 -18098.380128  -8689.296829 -17303.816611    -19.282482                    
V 19  21359.655456  -6183.614173 -19086.592484       .012172                    
P 20 -14060.610733  -6171.877047  21586.832890    -30.950968                    
V 20   7163.058146 -26679.361270  -2914.376313       .008568                    
P 21  17168.096079  -2923.354894 -20140.871740     12.346765                    
V 21  16691.239914  19431.273964  10870.213767       .031738                    
P 22  12106.996920 -22722.670880  -6371.030278     75.041044                    
V 22    149.884848   8771.160321 -30260.793744       .032559                    
P 23 -23905.781601  -1750.529233  11514.591774    147.589225                    
V 23  13629.126676  -5887.616413  27039.627655      -.012853                    
P 24 -13487.438860   7781.032586  21775.501337     91.817989                    
V 24 -17973.976386 -20236.661532  -3698.700573       .029780                    
P 25  -3368.778671 -19501.557619  18063.177436    -35.956114                    
V 25  18157.773517  12886.677014  17814.719695       .306009                    
P 26  14686.868738  10124.884108 -20245.288335    -56.682798                    
V 26 -23831.112825   6238.632016 -13858.315149      -.094309                    
P 27 -17077.070925   3295.754651 -19574.589686     39.284565                    
V 27 -18776.549729 -18149.793936  12593.473381       .016368                    
P 28 -12966.928780  20736.727285  -9636.629644     31.768217                    
V 28    758.247626 -13043.837133 -28626.103276      -.007808                    
P 29  10539.394284  11639.034028 -21223.827643    557.116972                    
V 29 -26269.776703   7807.545024  -8409.435548       .105629                    
P 30  16132.111740  -4760.062751  20255.258262     27.710977                    
V 30  -4819.671012  26008.399148   9931.179241       .002717                    
EOF
